[{"OBJECT_NAME":"STARLINK-6052","OBJECT_ID":"2023-078AC","EPOCH":"2026-03-09T23:30:28.564992","MEAN_MOTION":14.98330465,"ECCENTRICITY":0.0002634,"INCLINATION":70.0007,"RA_OF_ASC_NODE":343.728,"ARG_OF_PERICENTER":269.1521,"MEAN_ANOMALY":90.9337,"EPHEMERIS_TYPE":0,"CLASSIFICATION_TYPE":"U","NORAD_CAT_ID":56793,"ELEMENT_SET_NO":999,"REV_AT_EPOCH":15272,"BSTAR":-1.9674739e-5,"MEAN_MOTION_DOT":-3.28e-6,"MEAN_MOTION_DDOT":0},{"OBJECT_NAME":"SITRO-AIS 13","OBJECT_ID":"2024-199J","EPOCH":"2026-03-09T21:50:28.432320","MEAN_MOTION":14.9731664,"ECCENTRICITY":0.00074694,"INCLINATION":97.3312,"RA_OF_ASC_NODE":274.5755,"ARG_OF_PERICENTER":53.5174,"MEAN_ANOMALY":306.6736,"EPHEMERIS_TYPE":0,"CLASSIFICATION_TYPE":"U","NORAD_CAT_ID":61743,"ELEMENT_SET_NO":999,"REV_AT_EPOCH":11713,"BSTAR":0.00039590089,"MEAN_MOTION_DOT":4.542e-5,"MEAN_MOTION_DDOT":0}]
